STARLINK-31652          
1 59256U 24050C   25250.17918322  .00005040  00000+0  18218-3 0  9996
2 59256  53.1604 313.2885 0000649 117.4410 242.6657 15.30200287 82454
STARLINK-31655          
1 59257U 24050D   25250.24498812  .00000960  00000+0  44532-4 0  9997
2 59257  53.1598 274.8712 0000737 116.8536 243.2540 15.30199500 82990
STARLINK-31637          
1 59258U 24050E   25250.17285691  .00000094  00000+0  15290-4 0  9996
2 59258  53.1622 313.2493 0001417  78.3238 281.7922 15.30206134 82454
STARLINK-31506          
1 59259U 24050F   25250.18870163  .00004116  00000+0  15103-3 0  9993
2 59259  53.1595 313.3478 0001430 124.4070 235.7066 15.30196136 82458
STARLINK-31288          
1 59260U 24050G   25250.25001157  .00431113  00000+0  36431-2 0  9999
2 59260  53.1395 296.3596 0011832  24.6169  25.5324 15.67833233  5943
STARLINK-31639          
1 59261U 24050H   25249.91476572  .00002422  00000+0  93874-4 0  9991
2 59261  53.1617 314.4842 0001302  83.2792 276.8357 15.30200871 82411
STARLINK-31598          
1 59263U 24050K   25249.44081262  .00007175  00000+0  25445-3 0  9997
2 59263  53.1605 317.1927 0001306 102.6330 257.4816 15.30158024 82330
STARLINK-31645          
1 59264U 24050L   25250.19923456 -.00001132  00000+0 -26070-4 0  9997
2 59264  53.1604 313.4083 0001028  90.0082 270.1037 15.30221993 82453
STARLINK-31646          
1 59265U 24050M   25250.20557038  .00013589  00000+0  46992-3 0  9990
2 59265  53.1580 313.4473 0001334  73.5889 286.5258 15.30212545 82450
STARLINK-31648          
1 59266U 24050N   25249.92109870  .00002486  00000+0  96004-4 0  9999
2 59266  53.1616 314.5204 0001401  87.3186 272.7975 15.30206980 82418
STARLINK-31579          
1 59267U 24050P   25250.19606814 -.00000553  00000+0 -65413-5 0  9997
2 59267  53.1608 313.3894 0001194  79.9335 280.1800 15.30218894 82455
STARLINK-31627          
1 59268U 24050Q   25250.21822796  .00001735  00000+0  70677-4 0  9998
2 59268  53.1597 313.5262 0001075 104.7481 255.3639 15.30210810 82455
STARLINK-31609          
1 59269U 24050R   25250.20240664  .00009969  00000+0  34832-3 0  9995
2 59269  53.1601 313.4308 0001474 107.7667 252.3495 15.30194767 82453
STARLINK-31616          
1 59270U 24050S   25250.20872990  .00003325  00000+0  12434-3 0  9994
2 59270  53.1596 313.4653 0001302  95.0832 265.0317 15.30195938 82459
STARLINK-31630          
1 59271U 24050T   25250.15129892  .00003666  00000+0  13584-3 0  9990
2 59271  53.1589 301.0251 0001363  85.3815 274.7341 15.30203614 82623
STARLINK-31623          
1 59272U 24050U   25250.15700685 -.00106624  00000+0 -36152-2 0  9991
2 59272  53.1602 313.1553 0001315  84.5435 275.5716 15.30415391 82458
