[{"OBJECT_NAME":"STARLINK-31652","OBJECT_ID":"2024-050C","EPOCH":"2025-09-07T04:18:01.430208","MEAN_MOTION":15.30200287,"ECCENTRICITY":6.492e-5,"INCLINATION":53.1604,"RA_OF_ASC_NODE":313.2885,"ARG_OF_PERICENTER":117.441,"MEAN_ANOMALY":242.6657,"EPHEMERIS_TYPE":0,"CLASSIFICATION_TYPE":"U","NORAD_CAT_ID":59256,"ELEMENT_SET_NO":999,"REV_AT_EPOCH":8245,"BSTAR":0.00018217864,"MEAN_MOTION_DOT":5.04e-5,"MEAN_MOTION_DDOT":0},{"OBJECT_NAME":"STARLINK-31655","OBJECT_ID":"2024-050D","EPOCH":"2025-09-07T05:52:46.973568","MEAN_MOTION":15.301995,"ECCENTRICITY":7.378e-5,"INCLINATION":53.1598,"RA_OF_ASC_NODE":274.8712,"ARG_OF_PERICENTER":116.8536,"MEAN_ANOMALY":243.254,"EPHEMERIS_TYPE":0,"CLASSIFICATION_TYPE":"U","NORAD_CAT_ID":59257,"ELEMENT_SET_NO":999,"REV_AT_EPOCH":8299,"BSTAR":4.4531719e-5,"MEAN_MOTION_DOT":9.6e-6,"MEAN_MOTION_DDOT":0},{"OBJECT_NAME":"STARLINK-31637","OBJECT_ID":"2024-050E","EPOCH":"2025-09-07T04:08:54.837024","MEAN_MOTION":15.30206134,"ECCENTRICITY":0.00014173,"INCLINATION":53.1622,"RA_OF_ASC_NODE":313.2493,"ARG_OF_PERICENTER":78.3238,"MEAN_ANOMALY":281.7922,"EPHEMERIS_TYPE":0,"CLASSIFICATION_TYPE":"U","NORAD_CAT_ID":59258,"ELEMENT_SET_NO":999,"REV_AT_EPOCH":8245,"BSTAR":1.528993e-5,"MEAN_MOTION_DOT":9.4e-7,"MEAN_MOTION_DDOT":0},{"OBJECT_NAME":"STARLINK-31506","OBJECT_ID":"2024-050F","EPOCH":"2025-09-07T04:31:43.820832","MEAN_MOTION":15.30196136,"ECCENTRICITY":0.000143,"INCLINATION":53.1595,"RA_OF_ASC_NODE":313.3478,"ARG_OF_PERICENTER":124.407,"MEAN_ANOMALY":235.7066,"EPHEMERIS_TYPE":0,"CLASSIFICATION_TYPE":"U","NORAD_CAT_ID":59259,"ELEMENT_SET_NO":999,"REV_AT_EPOCH":8245,"BSTAR":0.00015103043,"MEAN_MOTION_DOT":4.116e-5,"MEAN_MOTION_DDOT":0},{"OBJECT_NAME":"STARLINK-31288","OBJECT_ID":"2024-050G","EPOCH":"2025-09-07T06:00:00.999648","MEAN_MOTION":15.67833233,"ECCENTRICITY":0.00118325,"INCLINATION":53.1395,"RA_OF_ASC_NODE":296.3596,"ARG_OF_PERICENTER":24.6169,"MEAN_ANOMALY":25.5324,"EPHEMERIS_TYPE":0,"CLASSIFICATION_TYPE":"U","NORAD_CAT_ID":59260,"ELEMENT_SET_NO":999,"REV_AT_EPOCH":594,"BSTAR":0.003643053,"MEAN_MOTION_DOT":0.00431113,"MEAN_MOTION_DDOT":0},{"OBJECT_NAME":"STARLINK-31639","OBJECT_ID":"2024-050H","EPOCH":"2025-09-06T21:57:15.758208","MEAN_MOTION":15.30200871,"ECCENTRICITY":0.00013028,"INCLINATION":53.1617,"RA_OF_ASC_NODE":314.4842,"ARG_OF_PERICENTER":83.2792,"MEAN_ANOMALY":276.8357,"EPHEMERIS_TYPE":0,"CLASSIFICATION_TYPE":"U","NORAD_CAT_ID":59261,"ELEMENT_SET_NO":999,"REV_AT_EPOCH":8241,"BSTAR":9.3874449e-5,"MEAN_MOTION_DOT":2.422e-5,"MEAN_MOTION_DDOT":0},{"OBJECT_NAME":"STARLINK-31598","OBJECT_ID":"2024-050K","EPOCH":"2025-09-06T10:34:46.210368","MEAN_MOTION":15.30158024,"ECCENTRICITY":0.00013064,"INCLINATION":53.1605,"RA_OF_ASC_NODE":317.1927,"ARG_OF_PERICENTER":102.633,"MEAN_ANOMALY":257.4816,"EPHEMERIS_TYPE":0,"CLASSIFICATION_TYPE":"U","NORAD_CAT_ID":59263,"ELEMENT_SET_NO":999,"REV_AT_EPOCH":8233,"BSTAR":0.00025445486,"MEAN_MOTION_DOT":7.175e-5,"MEAN_MOTION_DDOT":0},{"OBJECT_NAME":"STARLINK-31645","OBJECT_ID":"2024-050L","EPOCH":"2025-09-07T04:46:53.865984","MEAN_MOTION":15.30221993,"ECCENTRICITY":0.0001028,"INCLINATION":53.1604,"RA_OF_ASC_NODE":313.4083,"ARG_OF_PERICENTER":90.0082,"MEAN_ANOMALY":270.1037,"EPHEMERIS_TYPE":0,"CLASSIFICATION_TYPE":"U","NORAD_CAT_ID":59264,"ELEMENT_SET_NO":999,"REV_AT_EPOCH":8245,"BSTAR":-2.6070165e-5,"MEAN_MOTION_DOT":-1.132e-5,"MEAN_MOTION_DDOT":0},{"OBJECT_NAME":"STARLINK-31646","OBJECT_ID":"2024-050M","EPOCH":"2025-09-07T04:56:01.280832","MEAN_MOTION":15.30212545,"ECCENTRICITY":0.00013341,"INCLINATION":53.158,"RA_OF_ASC_NODE":313.4473,"ARG_OF_PERICENTER":73.5889,"MEAN_ANOMALY":286.5258,"EPHEMERIS_TYPE":0,"CLASSIFICATION_TYPE":"U","NORAD_CAT_ID":59265,"ELEMENT_SET_NO":999,"REV_AT_EPOCH":8245,"BSTAR":0.00046991902,"MEAN_MOTION_DOT":0.00013589,"MEAN_MOTION_DDOT":0},{"OBJECT_NAME":"STARLINK-31648","OBJECT_ID":"2024-050N","EPOCH":"2025-09-06T22:06:22.927680","MEAN_MOTION":15.3020698,"ECCENTRICITY":0.00014016,"INCLINATION":53.1616,"RA_OF_ASC_NODE":314.5204,"ARG_OF_PERICENTER":87.3186,"MEAN_ANOMALY":272.7975,"EPHEMERIS_TYPE":0,"CLASSIFICATION_TYPE":"U","NORAD_CAT_ID":59266,"ELEMENT_SET_NO":999,"REV_AT_EPOCH":8241,"BSTAR":9.6004212e-5,"MEAN_MOTION_DOT":2.486e-5,"MEAN_MOTION_DDOT":0},{"OBJECT_NAME":"STARLINK-31579","OBJECT_ID":"2024-050P","EPOCH":"2025-09-07T04:42:20.287296","MEAN_MOTION":15.30218894,"ECCENTRICITY":0.00011946,"INCLINATION":53.1608,"RA_OF_ASC_NODE":313.3894,"ARG_OF_PERICENTER":79.9335,"MEAN_ANOMALY":280.18,"EPHEMERIS_TYPE":0,"CLASSIFICATION_TYPE":"U","NORAD_CAT_ID":59267,"ELEMENT_SET_NO":999,"REV_AT_EPOCH":8245,"BSTAR":-6.54131e-6,"MEAN_MOTION_DOT":-5.53e-6,"MEAN_MOTION_DDOT":0},{"OBJECT_NAME":"STARLINK-31627","OBJECT_ID":"2024-050Q","EPOCH":"2025-09-07T05:14:14.895744","MEAN_MOTION":15.3021081,"ECCENTRICITY":0.00010754,"INCLINATION":53.1597,"RA_OF_ASC_NODE":313.5262,"ARG_OF_PERICENTER":104.7481,"MEAN_ANOMALY":255.3639,"EPHEMERIS_TYPE":0,"CLASSIFICATION_TYPE":"U","NORAD_CAT_ID":59268,"ELEMENT_SET_NO":999,"REV_AT_EPOCH":8245,"BSTAR":7.0677072e-5,"MEAN_MOTION_DOT":1.735e-5,"MEAN_MOTION_DDOT":0},{"OBJECT_NAME":"STARLINK-31609","OBJECT_ID":"2024-050R","EPOCH":"2025-09-07T04:51:27.933696","MEAN_MOTION":15.30194767,"ECCENTRICITY":0.00014747,"INCLINATION":53.1601,"RA_OF_ASC_NODE":313.4308,"ARG_OF_PERICENTER":107.7667,"MEAN_ANOMALY":252.3495,"EPHEMERIS_TYPE":0,"CLASSIFICATION_TYPE":"U","NORAD_CAT_ID":59269,"ELEMENT_SET_NO":999,"REV_AT_EPOCH":8245,"BSTAR":0.00034832296,"MEAN_MOTION_DOT":9.969e-5,"MEAN_MOTION_DDOT":0},{"OBJECT_NAME":"STARLINK-31616","OBJECT_ID":"2024-050S","EPOCH":"2025-09-07T05:00:34.263360","MEAN_MOTION":15.30195938,"ECCENTRICITY":0.00013021,"INCLINATION":53.1596,"RA_OF_ASC_NODE":313.4653,"ARG_OF_PERICENTER":95.0832,"MEAN_ANOMALY":265.0317,"EPHEMERIS_TYPE":0,"CLASSIFICATION_TYPE":"U","NORAD_CAT_ID":59270,"ELEMENT_SET_NO":999,"REV_AT_EPOCH":8245,"BSTAR":0.00012433878,"MEAN_MOTION_DOT":3.325e-5,"MEAN_MOTION_DDOT":0},{"OBJECT_NAME":"STARLINK-31630","OBJECT_ID":"2024-050T","EPOCH":"2025-09-07T03:37:52.226688","MEAN_MOTION":15.30203614,"ECCENTRICITY":0.00013633,"INCLINATION":53.1589,"RA_OF_ASC_NODE":301.0251,"ARG_OF_PERICENTER":85.3815,"MEAN_ANOMALY":274.7341,"EPHEMERIS_TYPE":0,"CLASSIFICATION_TYPE":"U","NORAD_CAT_ID":59271,"ELEMENT_SET_NO":999,"REV_AT_EPOCH":8262,"BSTAR":0.00013584235,"MEAN_MOTION_DOT":3.666e-5,"MEAN_MOTION_DDOT":0},{"OBJECT_NAME":"STARLINK-31623","OBJECT_ID":"2024-050U","EPOCH":"2025-09-07T03:46:05.391840","MEAN_MOTION":15.30415391,"ECCENTRICITY":0.00013157,"INCLINATION":53.1602,"RA_OF_ASC_NODE":313.1553,"ARG_OF_PERICENTER":84.5435,"MEAN_ANOMALY":275.5716,"EPHEMERIS_TYPE":0,"CLASSIFICATION_TYPE":"U","NORAD_CAT_ID":59272,"ELEMENT_SET_NO":999,"REV_AT_EPOCH":8245,"BSTAR":-0.0036151753,"MEAN_MOTION_DOT":-0.00106624,"MEAN_MOTION_DDOT":0}]
